ONEWEB-0385             
1 49311U 21090AJ  21321.25002315 -.00839301  00000-0 -77614-1 0  9999
2 49311  87.2150 281.5954 0013782 119.8634  50.0869 14.97369109  6463
ONEWEB-0386             
1 49312U 21090AK  21321.25002315 -.00870333  00000-0 -90795-1 0  9995
2 49312  87.2063 281.6340 0008370 126.1866 344.2266 14.92833789  6444
ONEWEB-0387             
1 49313U 21090AL  21320.91667824 -.00927241  00000-0 -88591-1 0  9992
2 49313  87.2186 281.7437 0011330 144.4368 188.5187 14.95967530  6401
ONEWEB-0388             
1 49314U 21090AM  21320.93843754 -.00331148  00000-0 -38986-1 0  9991
2 49314  87.4617 282.1632 0009086 152.3533 207.8178 14.86818822  5089
